{
  "type": "FeatureCollection",
  "features": [
    {
      "type": "Feature",
      "properties": {
        "id": "del_boundary",
        "name": "DEL Airport Boundary",
        "type": "boundary"
      },
      "geometry": {
        "type": "Polygon",
        "coordinates": [
          [
            [77.0700, 28.5750],
            [77.1350, 28.5750],
            [77.1350, 28.5300],
            [77.0700, 28.5300],
            [77.0700, 28.5750]
          ]
        ]
      }
    },
    {
      "type": "Feature",
      "properties": {
        "id": "runway_11l_29r",
        "name": "Runway 11L/29R",
        "type": "runway",
        "heading_deg": 110.0,
        "width_m": 45.0,
        "length_m": 4430.0
      },
      "geometry": {
        "type": "LineString",
        "coordinates": [
          [77.0800, 28.5650],
          [77.1220, 28.5500]
        ]
      }
    },
    {
      "type": "Feature",
      "properties": {
        "id": "runway_09_27",
        "name": "Runway 09/27",
        "type": "runway",
        "heading_deg": 90.0,
        "width_m": 45.0,
        "length_m": 3813.0
      },
      "geometry": {
        "type": "LineString",
        "coordinates": [
          [77.0850, 28.5450],
          [77.1240, 28.5450]
        ]
      }
    },
    {
      "type": "Feature",
      "properties": {
        "id": "taxiway_alpha",
        "name": "Taxiway Alpha",
        "type": "taxiway",
        "width_m": 25.0
      },
      "geometry": {
        "type": "LineString",
        "coordinates": [
          [77.0820, 28.5630],
          [77.1200, 28.5480]
        ]
      }
    },
    {
      "type": "Feature",
      "properties": {
        "id": "taxiway_bravo",
        "name": "Taxiway Bravo",
        "type": "taxiway",
        "width_m": 25.0
      },
      "geometry": {
        "type": "LineString",
        "coordinates": [
          [77.0870, 28.5430],
          [77.1220, 28.5430]
        ]
      }
    }
  ]
}
